{
  "one": [
    {
      "id": 1,
      "fname": "Aman",
      "lname": "Culaciati",
      "tel": "(865)925-6933",
      "address": "2420 Tempor Ave",
      "city": "Wabash",
      "state": "CO",
      "zip": "13761"
    },
    {
      "id": 2,
      "fname": "Adreta",
      "lname": "Klein",
      "tel": "(582)340-2480",
      "address": "2631 In St",
      "city": "Superior",
      "state": "CA",
      "zip": 62969
    },
    {
      "id": 3,
      "fname": "Roderic",
      "lname": "Shrestha",
      "tel": "(311)296-1839",
      "address": "409 Magna Rd",
      "city": "Lake City",
      "state": "AK",
      "zip": 10248
    },
    {
      "id": 4,
      "fname": "Aurora",
      "lname": "Gallant",
      "tel": "(559)144-9225",
      "address": "5627 Augue Ln",
      "city": "Mount Vernon",
      "state": "MN",
      "zip": 14528
    },
    {
      "id": 5,
      "fname": "Takisha",
      "lname": "Mahajan",
      "tel": "(769)310-4769",
      "address": "4735 Mi Ct",
      "city": "Mount Vernon",
      "state": "MN",
      "zip": 14845
    },
    {
      "id": 6,
      "fname": "Heidi",
      "lname": "Lichtenwalner",
      "tel": "(273)143-8763",
      "address": "8758 Porttitor Ln",
      "city": "Oakland",
      "state": "MT",
      "zip": 69010
    },
    {
      "id": 7,
      "fname": "Rajesh",
      "lname": "Welld",
      "tel": "(635)787-7539",
      "address": "9068 Nullam Ln",
      "city": "Maricopa",
      "state": "IN",
      "zip": 45623
    },
    {
      "id": 8,
      "fname": "Ken",
      "lname": "Suchland",
      "tel": "(447)552-9209",
      "address": "8214 Non Ave",
      "city": "Brunswick",
      "state": "KY",
      "zip": 10478
    },
    {
      "id": 9,
      "fname": "Larry",
      "lname": "Romard",
      "tel": "(129)199-4161",
      "address": "3439 Et St",
      "city": "Conneaut",
      "state": "DC",
      "zip": 78726
    },
    {
      "id": 10,
      "fname": "Lenora",
      "lname": "Kamdar",
      "tel": "(605)075-2420",
      "address": "2185 Scelerisque Ct",
      "city": "Lockhart",
      "state": "NH",
      "zip": 60408
    },
    {
      "id": "11",
      "fname": "Prudhvidhar",
      "lname": "Rathna",
      "tel": "(865)925-6933",
      "address": "nayeemnagar",
      "city": "hanamkonda",
      "state": "Telanagana",
      "zip": "506009"
    }
  ]
}