{
  "user": [
    {
      "id": 1,
      "fname": "Aroterick",
      "lname": "Clagg",
      "tel": "(810)710-8176",
      "address": "4511 Et Ln",
      "city": "Schaumburg",
      "state": "CT",
      "zip": 36925
    },
    {
      "id": 2,
      "fname": "Johanan",
      "lname": "Loehfelm",
      "tel": "(216)885-7193",
      "address": "8958 Velit Dr",
      "city": "Wilson",
      "state": "CA",
      "zip": 84715
    },
    {
      "id": 3,
      "fname": "Kerrissa",
      "lname": "Reimer",
      "tel": "(478)856-1393",
      "address": "4734 Ac Rd",
      "city": "Elmwood Park",
      "state": "SD",
      "zip": 46424
    },
    {
      "id": 4,
      "fname": "Leilani",
      "lname": "Solomon",
      "tel": "(605)669-9827",
      "address": "434 Nec St",
      "city": "Brandon",
      "state": "WI",
      "zip": 29009
    },
    {
      "id": 5,
      "fname": "Audrey",
      "lname": "Clayton",
      "tel": "(526)442-4029",
      "address": "8895 Vel St",
      "city": "Bremen",
      "state": "LA",
      "zip": 11340
    },
    {
      "id": 6,
      "fname": "Sunghoon",
      "lname": "Evans",
      "tel": "(215)107-2926",
      "address": "2584 Pulvinar Ln",
      "city": "Senoia",
      "state": "OR",
      "zip": 84761
    },
    {
      "id": 8,
      "fname": "Manikanta",
      "lname": "Reddy",
      "tel": "9959839321",
      "address": "22/60-kanukunta,lingampally,hyderabad;",
      "state": "Telangana",
      "city": "Hyderabad",
      "zip": "500050"
    },
    {
      "id": 7,
      "fname": "Magdalena",
      "lname": "Angell",
      "tel": "(483)203-1244",
      "address": "4107 Morbi Dr",
      "city": "Frankfort",
      "state": "HI",
      "zip": "43806"
    }
  ]
    }
    