{
  "folks": [
    {
      "id": "1",
      "fname": "Rick",
      "lname": "Allison",
      "tel": "(154)979-6831",
      "address": "4587 Elit Rd",
      "city": "Nashua",
      "state": "AK",
      "zip": 28444
    },
    {
      "id": "2",
      "fname": "Donald",
      "lname": "Hess",
      "tel": "(407)867-3904",
      "address": "7250 Nec Ln",
      "city": "Hampton",
      "state": "NE",
      "zip": 88776
    },
    {
      "id": "3",
      "fname": "Guillaume",
      "lname": "Ritchie",
      "tel": "(977)195-6871",
      "address": "192 Sed Ln",
      "city": "Modesto",
      "state": "WV",
      "zip": 78024
    },
    {
      "id": "4",
      "fname": "Vernell",
      "lname": "Gerela",
      "tel": "(650)155-4257",
      "address": "5001 Vel Ct",
      "city": "Rochester",
      "state": "andhra",
      "zip": 51435
    },
    {
      "id": "5",
      "fname": "Clare",
      "lname": "Allen",
      "tel": "(926)058-9832",
      "address": "8818 Amet Ave",
      "city": "Houston",
      "state": "RI",
      "zip": 22133
    },
    {
      "id": "6",
      "fname": "Yewawde",
      "lname": "Iliatova",
      "tel": "(716)920-2222",
      "address": "1926 Molestie Rd",
      "city": "Nashua",
      "state": "VT",
      "zip": 74642
    },
    {
      "id": "7",
      "fname": "Terri",
      "lname": "Eschenbacher",
      "tel": "(320)889-9561",
      "address": "7881 Adipiscing Ave",
      "city": "Fargo",
      "state": "ND",
      "zip": 76642
    },
    {
      "id": "8",
      "fname": "Milanka",
      "lname": "Gilby",
      "tel": "(581)213-2393",
      "address": "4347 Sollicitudin Dr",
      "city": "Hartford",
      "state": "NY",
      "zip": 47296
    },
    {
      "id": "9",
      "fname": "Stephen",
      "lname": "Kaur",
      "tel": "(903)044-5075",
      "address": "6494 Tempor Ave",
      "city": "Lake Crystal",
      "state": "AL",
      "zip": 95728
    },
    {
      "id": "10",
      "fname": "Inho",
      "lname": "Clements",
      "tel": "(972)906-2223",
      "address": "9835 Velit St",
      "city": "Akron",
      "state": "MO",
      "zip": 97753
    },
    {
      "id": "3350",
      "fname": "Amilpur",
      "lname": "Durgamma",
      "tel": "(477)792-1726",
      "address": "Bharath nagar",
      "city": "Siddipet",
      "state": "TELANGANA",
      "zip": "502103"
    },
    {
      "id": "1592",
      "fname": "as",
      "lname": "Kumar",
      "tel": "(477)792-1726",
      "address": "11-2-57/A",
      "city": "Siddipet",
      "state": "TELANGANA",
      "zip": "502103"
    },
    {
      "id": "14785",
      "fname": "sssssssssss",
      "lname": "ssssssss",
      "tel": "sssssssssss",
      "address": "sssssssssss",
      "city": "sssssssss",
      "state": "ssssssssss",
      "zip": "ssssssssssss"
    }
  ]
}