{
  "two": [
    {
      "id": "1",
      "fname": "Raphael",
      "lname": "Hovanec",
      "tel": "(927)812-1266",
      "address": "1719 Molestie Ln",
      "city": "Piedmont",
      "state": "RI",
      "zip": 93371
    },
    {
      "id": "2",
      "fname": "Agnes",
      "lname": "Linden",
      "tel": "(134)112-3882",
      "address": "7299 Sit Ave",
      "city": "Macomb",
      "state": "PA",
      "zip": 37196
    },
    {
      "id": "3",
      "fname": "Leatrice",
      "lname": "Dieli",
      "tel": "(562)006-9845",
      "address": "6176 Mattis Rd",
      "city": "Siloam Springs",
      "state": "MN",
      "zip": 22015
    },
    {
      "id": "4",
      "fname": "Tanita",
      "lname": "Truth",
      "tel": "(556)895-6948",
      "address": "475 Pulvinar Ln",
      "city": "Atwater",
      "state": "NE",
      "zip": 49248
    },
    {
      "id": "5",
      "fname": "Keefer",
      "lname": "Klein",
      "tel": "(893)277-0365",
      "address": "8385 Convallis Rd",
      "city": "Baton Rouge",
      "state": "UT",
      "zip": 79562
    },
    {
      "id": "6",
      "fname": "Truefelia",
      "lname": "Dehaven",
      "tel": "(934)117-5684",
      "address": "7616 Tortor Ave",
      "city": "Cuyahoga Falls",
      "state": "MD",
      "zip": 51015
    },
    {
      "id": "7",
      "fname": "Tasha",
      "lname": "Wray",
      "tel": "(720)495-0083",
      "address": "8430 Pulvinar Dr",
      "city": "Northern Ca",
      "state": "AZ",
      "zip": 77496
    },
    {
      "id": "15",
      "fname": "ajay",
      "lname": "kumar",
      "tel": "11111111",
      "address": "  2222222222",
      "city": "hyd",
      "state": "ts",
      "zip": "502103"
    },
    {
      "id": "22222222",
      "fname": "11111111",
      "lname": "111111111",
      "tel": "11111",
      "address": "  777777",
      "city": "55555555",
      "state": "77777",
      "zip": "88888"
    }
  ]
}